[{"OBJECT_NAME":"CONTINUUM-1","OBJECT_ID":"2023-001AN","EPOCH":"2026-03-09T23:17:35.458656","MEAN_MOTION":15.27981258,"ECCENTRICITY":0.00109493,"INCLINATION":97.3456,"RA_OF_ASC_NODE":133.3964,"ARG_OF_PERICENTER":60.1976,"MEAN_ANOMALY":300.0351,"EPHEMERIS_TYPE":0,"CLASSIFICATION_TYPE":"U","NORAD_CAT_ID":55045,"ELEMENT_SET_NO":999,"REV_AT_EPOCH":17709,"BSTAR":0.00052859897,"MEAN_MOTION_DOT":0.00014395,"MEAN_MOTION_DDOT":0},{"OBJECT_NAME":"STARLINK-35598","OBJECT_ID":"2025-263AA","EPOCH":"2026-03-09T03:53:23.535744","MEAN_MOTION":15.27556739,"ECCENTRICITY":0.00020717,"INCLINATION":43.0038,"RA_OF_ASC_NODE":354.0684,"ARG_OF_PERICENTER":272.3623,"MEAN_ANOMALY":87.6991,"EPHEMERIS_TYPE":0,"CLASSIFICATION_TYPE":"U","NORAD_CAT_ID":66509,"ELEMENT_SET_NO":999,"REV_AT_EPOCH":1881,"BSTAR":0.00090979892,"MEAN_MOTION_DOT":0.00024841,"MEAN_MOTION_DDOT":0}]
